     2.10           NAVIGATION DATA                         RINEX VERSION / TYPE
SPIDER V4,0,0,3554                      2015 04 15 03:58    PGM / RUN BY / DATE 
   1.4901D-08 -7.4506D-09 -5.9605D-08  1.1921D-07           ION ALPHA           
   1.2493D+05 -1.3107D+05  0.0000D+00 -6.5536D+04           ION BETA            
    1.862645149231D-09 6.217248937901D-15   319488     1829 DELTA-UTC: A0,A1,T,W
    16                                                      LEAP SECONDS        
                                                            END OF HEADER       
 1 15 01 25 12 00  0.0-9.775627404451D-06 4.547473508865D-13 0.000000000000D+00
    7.800000000000D+01-7.168750000000D+01 4.728053948355D-09-2.888614029340D+00
   -3.745779395103D-06 3.806537133642D-03 8.525326848030D-06 5.153667865753D+03
    4.320000000000D+04-1.862645149231D-08 2.045761597268D-01-7.450580596924D-08
    9.621108100399D-01 2.154062500000D+02 4.222356566556D-01-8.116052718776D-09
   -3.032269157988D-10 1.000000000000D+00 1.829000000000D+03 0.000000000000D+00
    2.000000000000D+00 0.000000000000D+00 5.587935447693D-09 7.800000000000D+01
    4.320000000000D+04 0.000000000000D+00
 2 15 01 26 00 00  0.0 5.440553650260D-04 2.273736754432D-12 0.000000000000D+00
    2.900000000000D+01-7.315625000000D+01 4.979493262169D-09-2.239136139134D+00
   -3.794208168983D-06 1.427145267371D-02 7.037073373795D-06 5.153756221771D+03
    8.640000000000D+04 1.247972249985D-07 1.693155754619D-01-1.657754182816D-07
    9.407032890279D-01 2.311562500000D+02-2.334154188354D+00-8.173555166024D-09
   -1.928651682803D-11 1.000000000000D+00 1.829000000000D+03 0.000000000000D+00
    2.000000000000D+00 0.000000000000D+00-2.048909664154D-08 2.900000000000D+01
    8.640000000000D+04 0.000000000000D+00
 3 15 01 25 14 00  0.0 1.706331968307D-04 2.341948857065D-11 0.000000000000D+00
    2.500000000000D+01 4.675000000000D+01 4.437327838502D-09 5.502445405566D-01
    2.332031726837D-06 9.615719318390D-04 1.180730760098D-05 5.153767793655D+03
    5.040000000000D+04-1.303851604462D-08 1.244815151388D+00-9.313225746155D-09
    9.591509698135D-01 1.478125000000D+02-3.012077629695D+00-7.987475569848D-09
    5.928818547218D-11 1.000000000000D+00 1.829000000000D+03 0.000000000000D+00
    2.000000000000D+00 0.000000000000D+00 1.396983861923D-09 2.500000000000D+01
    5.040000000000D+04 0.000000000000D+00
 4 15 01 25 12 00  0.0-6.154645234346D-06-5.684341886081D-13 0.000000000000D+00
    8.500000000000D+01-7.465625000000D+01 5.182716034113D-09-3.058522146604D+00
   -3.900378942490D-06 1.100069959648D-02 8.108094334602D-06 5.153734636307D+03
    4.320000000000D+04 1.247972249985D-07 1.851012105513D-01-1.769512891769D-07
    9.397403641639D-01 2.082812500000D+02 1.051734092832D+00-8.268916218412D-09
   -3.035840745458D-10 1.000000000000D+00 1.829000000000D+03 0.000000000000D+00
    2.000000000000D+00 0.000000000000D+00-6.519258022308D-09 8.500000000000D+01
    4.320000000000D+04 0.000000000000D+00
 5 15 01 25 20 00  0.0-2.879579551518D-04 5.229594535194D-12 0.000000000000D+00
    7.700000000000D+01 3.337500000000D+01 4.828058397521D-09-2.009760248341D+00
    1.445412635803D-06 4.039236810058D-03 1.120939850807D-05 5.153763217926D+03
    7.200000000000D+04 4.656612873077D-08 1.239206128904D+00-6.146728992462D-08
    9.464385525646D-01 1.549062500000D+02 4.239161516150D-01-8.100694337543D-09
    1.439345725940D-10 1.000000000000D+00 1.829000000000D+03 0.000000000000D+00
    2.000000000000D+00 0.000000000000D+00-1.071020960808D-08 7.700000000000D+01
    7.200000000000D+04 0.000000000000D+00
 6 15 01 26 00 00  0.0 6.219791248441D-05 1.148237060988D-11 0.000000000000D+00
    7.900000000000D+01-6.034375000000D+01 4.649122420375D-09-1.689349329552D-01
   -3.127381205559D-06 4.312511300668D-04 7.180497050285D-06 5.153680887222D+03
    8.640000000000D+04 7.078051567078D-08 1.956931631543D-01-7.078051567078D-08
    9.620062128602D-01 2.435312500000D+02 2.500353853637D+00-8.162126086120D-09
   -2.092944290100D-10 1.000000000000D+00 1.829000000000D+03 0.000000000000D+00
    2.000000000000D+00 0.000000000000D+00 4.656612873077D-09 7.900000000000D+01
    8.640000000000D+04 0.000000000000D+00
 7 15 01 25 18 00  0.0 4.346682690084D-04 3.296918293927D-12 0.000000000000D+00
    1.600000000000D+01-3.578125000000D+01 4.368753359074D-09-2.852098474950D-01
   -2.007931470871D-06 7.980437017977D-03 7.068738341331D-06 5.153739618301D+03
    6.480000000000D+04 4.470348358154D-08-2.918759445932D+00 8.754432201385D-08
    9.717322540117D-01 2.475625000000D+02-2.750979476560D+00-8.209984692087D-09
   -4.728768487894D-10 1.000000000000D+00 1.829000000000D+03 0.000000000000D+00
    2.000000000000D+00 0.000000000000D+00-1.117587089539D-08 1.600000000000D+01
    6.480000000000D+04 0.000000000000D+00
 9 15 01 25 16 00  0.0-6.620259955525D-05-1.205080479849D-11 0.000000000000D+00
    8.500000000000D+01 5.796875000000D+01 4.872345638063D-09 9.913096059898D-01
    2.883374691010D-06 3.199619241059D-04 5.105510354042D-06 5.153663448334D+03
    5.760000000000D+04 1.862645149231D-08 2.289364647261D+00-2.235174179077D-08
    9.582380138424D-01 2.778750000000D+02 2.269479008704D+00-8.408921559067D-09
    3.571577408823D-11 1.000000000000D+00 1.829000000000D+03 0.000000000000D+00
    2.800000000000D+00 0.000000000000D+00 4.656612873077D-10 8.500000000000D+01
    5.760000000000D+04 0.000000000000D+00
10 15 01 25 18 00  0.0-1.603639684618D-04-1.705302565824D-12 0.000000000000D+00
    8.600000000000D+01 3.978125000000D+01 4.856630653194D-09-2.712377808303D+00
    1.765787601471D-06 1.452529022936D-02 1.168809831142D-05 5.153661886215D+03
    6.480000000000D+04 1.788139343262D-07 1.255080724041D+00-2.142041921616D-07
    9.412218876353D-01 1.405312500000D+02 9.189267498562D-01-7.978903759920D-09
    1.732215065831D-10 1.000000000000D+00 1.829000000000D+03 0.000000000000D+00
    2.800000000000D+00 0.000000000000D+00-3.259629011154D-09 8.600000000000D+01
    6.480000000000D+04 0.000000000000D+00
11 15 01 25 12 00  0.0-5.532782524824D-04-2.728484105319D-12 0.000000000000D+00
    4.600000000000D+01-6.990625000000D+01 6.433482191426D-09 2.917046190385D+00
   -3.676861524582D-06 1.560595852789D-02 4.937872290611D-06 5.153720666885D+03
    4.320000000000D+04 1.899898052216D-07-1.371029312760D-01-1.508742570877D-07
    8.925854074221D-01 2.444375000000D+02 1.378021969015D+00-8.861797518023D-09
   -2.060800141646D-10 1.000000000000D+00 1.829000000000D+03 0.000000000000D+00
    2.000000000000D+00 0.000000000000D+00-1.210719347000D-08 4.600000000000D+01
    4.320000000000D+04 0.000000000000D+00
12 15 01 26 00 00  0.0 2.642562612891D-04 3.069544618484D-12 0.000000000000D+00
    5.500000000000D+01 3.968750000000D+00 3.686939198388D-09 2.414188226001D+00
    5.587935447693D-08 5.199413280934D-03 9.665265679359D-06 5.153752393723D+03
    8.640000000000D+04-1.080334186554D-07-1.852389100561D+00-5.960464477539D-08
    9.889950589282D-01 2.075000000000D+02 5.029390422299D-01-7.657104283965D-09
    6.250260031759D-11 1.000000000000D+00 1.829000000000D+03 0.000000000000D+00
    2.000000000000D+00 0.000000000000D+00-1.257285475731D-08 5.500000000000D+01
    8.640000000000D+04 0.000000000000D+00
13 15 01 25 22 00  0.0-8.217897266150D-05-3.524291969370D-12 0.000000000000D+00
    4.600000000000D+01 5.403125000000D+01 4.537331843579D-09 2.552261121703D+00
    2.747401595116D-06 5.352614913136D-03 5.301088094711D-06 5.153686275482D+03
    7.920000000000D+04 1.154839992523D-07 2.402403976146D+00 3.725290298462D-08
    9.751172416386D-01 2.841250000000D+02 2.068786897941D+00-8.126052719604D-09
    2.357240964923D-11 1.000000000000D+00 1.829000000000D+03 0.000000000000D+00
    2.000000000000D+00 0.000000000000D+00-1.164153218269D-08 4.600000000000D+01
    7.920000000000D+04 0.000000000000D+00
14 15 01 26 00 00  0.0 9.342702105641D-05-3.524291969370D-12 0.000000000000D+00
    7.600000000000D+01 5.746875000000D+01 4.775198902962D-09-8.303430459094D-01
    3.151595592499D-06 7.735701045021D-03 5.410984158516D-06 5.153776336670D+03
    8.640000000000D+04-9.313225746155D-09 2.368563894113D+00 1.285225152969D-07
    9.675940318095D-01 2.817187500000D+02-1.970390793863D+00-8.397849526887D-09
    1.328626791919D-10 1.000000000000D+00 1.829000000000D+03 0.000000000000D+00
    2.000000000000D+00 0.000000000000D+00-9.313225746155D-09 7.600000000000D+01
    8.640000000000D+04 0.000000000000D+00
15 15 01 25 22 00  0.0-2.284641377628D-04-2.273736754432D-12 0.000000000000D+00
    7.600000000000D+01 6.415625000000D+01 5.483799636608D-09-2.536360779207D+00
    3.172084689140D-06 7.039367104881D-03 5.545094609261D-06 5.153581171036D+03
    7.920000000000D+04-9.313225746155D-09 2.248550173506D+00-1.117587089539D-07
    9.341424145068D-01 2.612812500000D+02 3.656615789754D-01-8.571070964081D-09
    1.725071890890D-10 1.000000000000D+00 1.829000000000D+03 0.000000000000D+00
    2.000000000000D+00 0.000000000000D+00-1.071020960808D-08 7.600000000000D+01
    7.920000000000D+04 0.000000000000D+00
16 15 01 25 08 00  0.0-1.620864495635D-04 3.183231456205D-12 0.000000000000D+00
    1.010000000000D+02 1.968750000000D+01 3.826944983132D-09-1.837884263417D+00
    7.599592208862D-07 7.983070216142D-03 1.020170748234D-05 5.153737636566D+03
    2.880000000000D+04 5.215406417847D-08-1.833297156505D+00-1.154839992523D-07
    9.895391444944D-01 1.976562500000D+02 2.326123424949D-01-7.706749904912D-09
    3.814444593520D-10 1.000000000000D+00 1.829000000000D+03 0.000000000000D+00
    2.000000000000D+00 0.000000000000D+00-1.024454832077D-08 1.010000000000D+02
    2.880000000000D+04 0.000000000000D+00
